# Made by eph2tle, compiled Jul 30 2020 21:38:02
# Run at Thu Jul 30 21:44:15 2020
#
# No updates (interplanetary,  not to be seen again)
#
#    The following TLEs (Two-Line Elements) were generated by fitting
# a numerically-integrated ephemeris,  based on the orbit given below,
# to the SDP4/SGP4 models.  Each TLE is good for the interval between
# its epoch and the epoch of the subsequent TLE (usually one day).
# The maximum deviation between the numerically integrated ephemerides
# and the TLE-based ephemeris, in kilometers,  is given for each TLE
# as the "worst residual".
#
#    This fitting is done using the 'eph2tle' code packaged with Find_Orb.
# The code has details on how the TLEs were computed :
#
#    https://github.com/Bill-Gray/find_orb/eph2tle.cpp
#
#    Be warned:  the error given is that between the numerically
# integrated ephems and the TLE model.  There will usually be at
# least some additional difference between the ephems and the actual
# motion of the satellite,  especially if the ephemerides are based
# on a short arc.  If the following orbital elements say something
# like "[based on] 10 observations 2015 Jan. 1-13",  and the TLEs
# are for 2015 May,  the extrapolation may be tenuous at best.  If
# your application requires a specific level of accuracy,  you may
# want to contact me;  I can give you some idea as to the fit of the
# underlying data (and possibly TLEs based on newer data).
#
#   You can usually find the underlying observational data,  and the
# fitted orbit,  residuals,  ephemerides,  and sometimes some comments
# about the object,  among the pages listed at
#
#    https://www.projectpluto.com/pluto/mpecs/pseudo.htm
#
#    WARNING:  for this object,  "normal" TLEs cannot be fitted.  (This
# usually means an object with an hyperbolic or nearly-parabolic orbit.)
# For this and similar cases,   an alternative model is used,  in which
# most of the traditional TLE data is replaced by six signed 8-digit hex
# numbers.  These six numbers are a state vector,  numerically integrated
# using a simplified force model.  This is necessary for objects at L2 or
# L1,  and sometimes for objects in high orbits where the SDP4/SGP4 model
# fails.  I'll be posting source code for this.  But be aware:  it's my
# own extension,  doesn't work with other code,  and is therefore used
# only when necessary.
#
#    Also,  if you use a TLE outside the "correct" time range (between
# its MJD and that of the next TLE),  all bets are off.  I've carefully
# computed and minimized the worst error over the "correct" time frame,
# but the ephemeris may (or may not) diverge wildly outside of it.
#
# Ephem range: 59061.000000 59091.000000 1.000000
# Created Thu Jul 30 21:44:01 2020
# Ephemeris start: 31 Jul 2020  0:00:00
# Ephemeris end:   30 Aug 2020  0:00:00
# Times are all TDT
# Positions/velocities are in equatorial J2000
# Orbital elements:  2020-052B
#    Perigee 2020 Jul 30.5286465 +/- 0.000876 TT = 12:41:15.05 (JD 2459061.0286465)
# Epoch 2020 Jul 31.0 TT = JDT 2459061.5                        Find_Orb
# q  6410.2139297 +/- 3.36            (J2000 equator)
# H   26.5  G 0.15                    Peri.  274.9653227 +/- 0.16
#                                     Node   312.5493847 +/- 0.10
# e   1.231628081 +/- 0.00142         Incl.   27.9238336 +/- 0.013
# From 22 observations 2020 July 30-31 (2.0 hr); mean residual 0".194
# LAUNCH at  30 Jul 2020 12:40:53.15 lat -27.69261 lon E95.24061
#
# 1 NoradU COSPAR   Epoch.epoch     dn/dt/2  d2n/dt2/6 BSTAR    T El# C
# 2 NoradU Inclina RAAscNode Eccent  ArgPeri MeanAno  MeanMotion Rev# C

# Worst residual: 5.43 km
# MJD 59061.000000 (2020 Jul 31  0:00)
2020-052B
1 99999U 20052B   20212.99919926 +0032KWZZ +0006DSLL +0019JS9UH  9432
2 99999                          +000N3BON +0003GX67 +000AA5YO     01

# Worst residual: 13.56 km
# MJD 59062.000000 (2020 Aug  1  0:00)
2020-052B
1 99999U 20052B   20213.99919926 +008CHPB3 +000ZLW9J +003MCP69H  9431
2 99999                          +000LEYNT +0003BSJ2 +0009KNG5     06

# Worst residual: 2.00 km
# MJD 59063.000000 (2020 Aug  2  0:00)
2020-052B
1 99999U 20052B   20214.99919926 +00DFLJXF +001S4QDR +005W85FXH  9437
2 99999                          +000L12DJ +0003A3OT +0009EJ8G     03

# Worst residual: 0.50 km
# MJD 59064.000000 (2020 Aug  3  0:00)
2020-052B
1 99999U 20052B   20215.99919926 +00IGFMFL +002KCEEX +00852UT8H  9430
2 99999                          +000KUIY7 +000391CY +0009BHP8     04

# Worst residual: 0.65 km
# MJD 59065.000000 (2020 Aug  4  0:00)
2020-052B
1 99999U 20052B   20216.99919926 +00NG1OU3 +003CB9E2 +00ADC3VKH  9437
2 99999                          +000KQIM5 +000380G5 +00099EJL     06

# Worst residual: 0.89 km
# MJD 59066.000000 (2020 Aug  5  0:00)
2020-052B
1 99999U 20052B   20217.99919926 +00SEUR7T +00440NP2 +00CL50PFH  9439
2 99999                          +000KNOQL +00036TPP +00097NC1     03

# Worst residual: 1.16 km
# MJD 59067.000000 (2020 Aug  6  0:00)
2020-052B
1 99999U 20052B   20218.99919926 +00XD2I4B +004VERDR +00ESJ82GH  9438
2 99999                          +000KLJ37 +00035DX8 +00095YYS     07

# Worst residual: 1.39 km
# MJD 59068.000000 (2020 Aug  7  0:00)
2020-052B
1 99999U 20052B   20219.99919926 +012ATOOW +005MF6FJ +00GZITDPH  9433
2 99999                          +000KJTVM +00033NGG +00094910     06

# Worst residual: 1.57 km
# MJD 59069.000000 (2020 Aug  8  0:00)
2020-052B
1 99999U 20052B   20220.99919926 +01787S2V +006CZ8NS +00J633TEH  9432
2 99999                          +000KIHO7 +00031LHY +00092F54     08

# Worst residual: 1.69 km
# MJD 59070.000000 (2020 Aug  9  0:00)
2020-052B
1 99999U 20052B   20221.99919926 +01C5BPO2 +007304ZD +00LC6YVFH  9430
2 99999                          +000KHH3B +0002Z7OV +00090FY8     06

# Worst residual: 1.80 km
# MJD 59071.000000 (2020 Aug 10  0:00)
2020-052B
1 99999U 20052B   20222.99919926 +01H287ZO +007SF0JF +00NHT0YYH  9438
2 99999                          +000KGRTL +0002WHYM +0008YANQ     07

# Worst residual: 1.93 km
# MJD 59072.000000 (2020 Aug 11  0:00)
2020-052B
1 99999U 20052B   20223.99919926 +01LZ01N1 +008H50QX +00PMVR92H  9431
2 99999                          +000KGE50 +0002TGFQ +0008VYTA     02

# Worst residual: 2.15 km
# MJD 59073.000000 (2020 Aug 12  0:00)
2020-052B
1 99999U 20052B   20224.99919926 +01QVQ1A2 +00953CTA +00RRDJYQH  9436
2 99999                          +000KGCOI +0002Q3EF +0008TG6N     06

# Worst residual: 2.47 km
# MJD 59074.000000 (2020 Aug 13  0:00)
2020-052B
1 99999U 20052B   20225.99919926 +01VSH857 +009S7B21 +00TV8S48H  9436
2 99999                          +000KGOBC +0002MFAH +0008QQPH     07

# Worst residual: 2.86 km
# MJD 59075.000000 (2020 Aug 14  0:00)
2020-052B
1 99999U 20052B   20226.99919926 +020PCVO6 +00AEEAAP +00VYFSS0H  9435
2 99999                          +000KHE25 +0002IGPT +0008NUGK     04

# Worst residual: 3.23 km
# MJD 59076.000000 (2020 Aug 15  0:00)
2020-052B
1 99999U 20052B   20227.99919926 +025MGIGC +00AZLVGV +00Y0X09IH  9434
2 99999                          +000KIJ03 +0002E8HL +0008KRNK     08

# Worst residual: 3.54 km
# MJD 59077.000000 (2020 Aug 16  0:00)
2020-052B
1 99999U 20052B   20228.99919926 +02AJVWHK +00BJRVI7 +0102MVCGH  9431
2 99999                          +000KK47R +00029RNJ +0008HINA     07

# Worst residual: 3.75 km
# MJD 59078.000000 (2020 Aug 17  0:00)
2020-052B
1 99999U 20052B   20229.99919926 +02FHR2IR +00C2UDG3 +0123JYIIH  9435
2 99999                          +000KM6MP +000253I2 +0008E3XW     06

# Worst residual: 3.89 km
# MJD 59079.000000 (2020 Aug 18  0:00)
2020-052B
1 99999U 20052B   20230.99919926 +02KG689R +00CKRSFN +0143MZ8HH  9433
2 99999                          +000KOQWK +000209J8 +0008AK6L     00

# Worst residual: 4.05 km
# MJD 59080.000000 (2020 Aug 19  0:00)
2020-052B
1 99999U 20052B   20231.99919926 +02PF9PFX +00D1IX57 +0162UT0MH  9436
2 99999                          +000KRTA9 +0001VBCW +00086W47     02

# Worst residual: 4.25 km
# MJD 59081.000000 (2020 Aug 20  0:00)
2020-052B
1 99999U 20052B   20232.99919926 +02UF5TSQ +00DH2Y0L +01816I01H  9430
2 99999                          +000KVDJ5 +0001QAIS +000834IO     08

# Worst residual: 4.50 km
# MJD 59082.000000 (2020 Aug 21  0:00)
2020-052B
1 99999U 20052B   20233.99919926 +02ZFYSYN +00DVFDUY +019YLAU1H  9438
2 99999                          +000KZEXW +0001L8B1 +0007ZA3P     07

# Worst residual: 4.74 km
# MJD 59083.000000 (2020 Aug 22  0:00)
2020-052B
1 99999U 20052B   20234.99919926 +034HSMYP +00E8K0SM +01BV2LQ9H  9433
2 99999                          +000L3WHP +0001G5KA +0007VDFF     03

# Worst residual: 4.92 km
# MJD 59084.000000 (2020 Aug 23  0:00)
2020-052B
1 99999U 20052B   20235.99919926 +039KR2EP +00EKGS3W +01DQLWUJH  9435
2 99999                          +000L8T2C +0001B2MU +0007REUG     07

# Worst residual: 5.06 km
# MJD 59085.000000 (2020 Aug 24  0:00)
2020-052B
1 99999U 20052B   20236.99919926 +03EOXKP4 +00EV5LXO +01FL6SF4H  9431
2 99999                          +000LE3OM +00015ZE1 +0007NEHJ     04

# Worst residual: 5.20 km
# MJD 59086.000000 (2020 Aug 25  0:00)
2020-052B
1 99999U 20052B   20237.99919926 +03JUFG1F +00F4MDPI +01HESSZMH  9438
2 99999                          +000LJROJ +00010VCX +0007JCAV     05

# Worst residual: 5.39 km
# MJD 59087.000000 (2020 Aug 26  0:00)
2020-052B
1 99999U 20052B   20238.99919926 +03P1BUKI +00FCUTVP +01J7FI4FH  9436
2 99999                          +000LPSSC +0000VPVY +0007F84G     06

# Worst residual: 5.62 km
# MJD 59088.000000 (2020 Aug 27  0:00)
2020-052B
1 99999U 20052B   20239.99919926 +03U9PXSY +00FJUJ0G +01KZ2DNTH  9436
2 99999                          +000LW74H +0000QIAC +0007B1QB     06

# Worst residual: 5.86 km
# MJD 59089.000000 (2020 Aug 28  0:00)
2020-052B
1 99999U 20052B   20240.99919926 +03ZJOXUZ +00FPKVYN +01MPOVHHH  9437
2 99999                          +000M2Z5U +0000L7XV +00076SWC     04

# Worst residual: 6.07 km
# MJD 59090.000000 (2020 Aug 29  0:00)
2020-052B
1 99999U 20052B   20241.99919926 +044VC86D +00FU16U8 +01OFADNGH  9432
2 99999                          +000MA5NE +0000FUDH +00072HFM     01
Avg worst resid: 3.67 km
Worst residual in entire run: 13.56 km on MJD 59062.0
       1     3     10    30    100   300   1K    3K    10K   km
     3    10    16     1     0     0     0     0     0     0
